[{"OBJECT_NAME":"OBJECT A","OBJECT_ID":"2023-189A","EPOCH":"2026-03-09T22:59:06.381600","MEAN_MOTION":15.32403275,"ECCENTRICITY":0.00094831,"INCLINATION":97.4458,"RA_OF_ASC_NODE":86.5997,"ARG_OF_PERICENTER":249.5377,"MEAN_ANOMALY":110.4847,"EPHEMERIS_TYPE":0,"CLASSIFICATION_TYPE":"U","NORAD_CAT_ID":58502,"ELEMENT_SET_NO":999,"REV_AT_EPOCH":12601,"BSTAR":0.00019874471,"MEAN_MOTION_DOT":6.146e-5,"MEAN_MOTION_DDOT":0},{"OBJECT_NAME":"STARLINK-34272","OBJECT_ID":"2025-120U","EPOCH":"2026-03-09T10:27:49.709664","MEAN_MOTION":15.30199174,"ECCENTRICITY":0.00012147,"INCLINATION":53.1581,"RA_OF_ASC_NODE":118.1285,"ARG_OF_PERICENTER":90.0246,"MEAN_ANOMALY":270.0894,"EPHEMERIS_TYPE":0,"CLASSIFICATION_TYPE":"U","NORAD_CAT_ID":64274,"ELEMENT_SET_NO":999,"REV_AT_EPOCH":4377,"BSTAR":0.00073817082,"MEAN_MOTION_DOT":0.00021566,"MEAN_MOTION_DDOT":0}]
